{"type":"FeatureCollection","name":"Flatiron Reservoir 2012 bathymetric contours","metadata":{"water":"Flatiron Reservoir","survey_year":2012,"reference_elevation_ft":5478.34,"contour_interval_ft":10,"depth_reference":"Feet below the documented reference elevation","vertical_datum":"NAVD88 (GEOID09)","source":"U.S. Bureau of Reclamation","source_url":"https://www.usbr.gov/tsc/techreferences/reservoir/Flatiron%20Reservoir%202012%20Bathymetric%20Survey.gdb.zip","disclaimer":"Historical survey contours are for planning only and do not represent current depth or navigation hazards."},"features":[{"type":"Feature","properties":{"depth_ft":40,"elevation_ft":5438.0,"major":false},"geometry":{"type":"LineString","coordinates":[[-105.22913376853658,40.3709507454992],[-105.22916118157566,40.37093723294945],[-105.22907857872643,40.37095739448454],[-105.2290227907493,40.37105805420186],[-105.22913376853658,40.3709507454992]]}},{"type":"Feature","properties":{"depth_ft":40,"elevation_ft":5438.0,"major":false},"geometry":{"type":"LineString","coordinates":[[-105.22957481680375,40.37133904971021],[-105.22982983847321,40.37153806241536],[-105.22959817243674,40.37160783421131],[-105.22955107853691,40.371465985666845],[-105.22948208064727,40.371420161421426],[-105.22957481680375,40.37133904971021]]}},{"type":"Feature","properties":{"depth_ft":40,"elevation_ft":5438.0,"major":false},"geometry":{"type":"LineString","coordinates":[[-105.2293839621296,40.3712317829594],[-105.22925001096128,40.37129934056692],[-105.22911337695035,40.37119213153124],[-105.2293839621296,40.3712317829594]]}},{"type":"Feature","properties":{"depth_ft":30,"elevation_ft":5448.0,"major":false},"geometry":{"type":"LineString","coordinates":[[-105.22985906301676,40.37036914320747],[-105.22987290393023,40.370520319185594],[-105.2297956617707,40.370717802668054],[-105.22997696775406,40.370799832330476],[-105.22995812712996,40.37103661013563],[-105.22990001155648,40.37104111376486],[-105.22978510053339,40.37090319152061],[-105.22970931851603,40.37090666681674],[-105.22969958979708,40.370952233564495],[-105.22994173310711,40.37115305955106],[-105.22997615906266,40.37111948059725],[-105.22997671594248,40.37097546735916],[-105.23003988527158,40.37111857709616],[-105.23017124843959,40.37118654610608],[-105.2302918392574,40.37156208004836],[-105.23022534576499,40.37157357374413],[-105.23010682048893,40.371360226032664],[-105.22992709914968,40.37133521475325],[-105.22990150954041,40.371381084092725],[-105.22999563304869,40.37161595183459],[-105.22978373203952,40.37165511530528],[-105.22952987891253,40.371879321976415],[-105.22941205557672,40.37175577792509],[-105.22940898709929,40.37161939876176],[-105.22920002529695,40.37168615709752],[-105.22917833615575,40.37148845109876],[-105.22903559351215,40.37135223009055],[-105.2289111069488,40.37098751455069],[-105.22902086837146,40.370729922166404],[-105.22924379904399,40.370592192315826],[-105.22959977997785,40.37049580930983],[-105.22972356197197,40.37030760979855],[-105.22981779049726,40.37031134088196],[-105.22985906301676,40.37036914320747]]}},{"type":"Feature","properties":{"depth_ft":30,"elevation_ft":5448.0,"major":false},"geometry":{"type":"LineString","coordinates":[[-105.23098135975744,40.37194839527088],[-105.23112441031088,40.37175845763974],[-105.23110811289288,40.371669535740324],[-105.23091252753852,40.3718669777417],[-105.23092659774352,40.371926599686546],[-105.23098135975744,40.37194839527088]]}},{"type":"Feature","properties":{"depth_ft":30,"elevation_ft":5448.0,"major":false},"geometry":{"type":"LineString","coordinates":[[-105.23038970796799,40.37045001697232],[-105.23029856465516,40.370417457118634],[-105.23025875761446,40.37047425290966],[-105.23033973294238,40.37050307505725],[-105.23038970796799,40.37045001697232]]}},{"type":"Feature","properties":{"depth_ft":30,"elevation_ft":5448.0,"major":false},"geometry":{"type":"LineString","coordinates":[[-105.229378900842,40.371629973666266],[-105.22938086420346,40.371604774874854],[-105.229378900842,40.371629973666266]]}},{"type":"Feature","properties":{"depth_ft":30,"elevation_ft":5448.0,"major":false},"geometry":{"type":"LineString","coordinates":[[-105.2296044443019,40.370780744007355],[-105.22960780314034,40.37074602908737],[-105.2296044443019,40.370780744007355]]}},{"type":"Feature","properties":{"depth_ft":30,"elevation_ft":5448.0,"major":false},"geometry":{"type":"LineString","coordinates":[[-105.23091664762394,40.37206226952522],[-105.23096543090715,40.37208807513348],[-105.23091664762394,40.37206226952522]]}},{"type":"Feature","properties":{"depth_ft":30,"elevation_ft":5448.0,"major":false},"geometry":{"type":"LineString","coordinates":[[-105.2316213055957,40.371514804348585],[-105.23153394930696,40.37154058989827],[-105.23151479364522,40.37158997152877],[-105.23152186566546,40.37152633509254],[-105.2316213055957,40.371514804348585]]}},{"type":"Feature","properties":{"depth_ft":30,"elevation_ft":5448.0,"major":false},"geometry":{"type":"LineString","coordinates":[[-105.22917074344136,40.37210448630458],[-105.2291419415482,40.37210504944323],[-105.22924982583716,40.37210523658879],[-105.22917074344136,40.37210448630458]]}},{"type":"Feature","properties":{"depth_ft":30,"elevation_ft":5448.0,"major":false},"geometry":{"type":"LineString","coordinates":[[-105.23076470381831,40.37210464137908],[-105.23074233581596,40.3722066556531],[-105.23073993122397,40.37208745168162],[-105.23088261144945,40.372054591239085],[-105.23076470381831,40.37210464137908]]}},{"type":"Feature","properties":{"depth_ft":20,"elevation_ft":5458.0,"major":false},"geometry":{"type":"LineString","coordinates":[[-105.23187630499422,40.37149506413928],[-105.23149142690586,40.37190799864532],[-105.23074777060816,40.37244765247154],[-105.23061458352005,40.372622298685194],[-105.23059110283847,40.372744349645785],[-105.23035375903234,40.37273562132016],[-105.2300999314877,40.37257264032475],[-105.22966377014438,40.3727608155798],[-105.22942024391557,40.372941688331174],[-105.22926265372762,40.37275387259226],[-105.22876670916281,40.371600630700826],[-105.22874277359236,40.371493864053186],[-105.2287850370866,40.371384193828725],[-105.22869037706583,40.37122158011196],[-105.22867858436788,40.37110797655988],[-105.22881698936779,40.370862165546875],[-105.2289527103735,40.37072701149863],[-105.22927406308861,40.37050333923308],[-105.22952277508703,40.370400941166515],[-105.22963753188942,40.37026882376523],[-105.22990656009483,40.37018825784117],[-105.23038181931855,40.37021618943182],[-105.2307638080685,40.37004957935673],[-105.23094488694714,40.370073535195395],[-105.23117682221131,40.36998971641839],[-105.23124900549263,40.37001844459873],[-105.23128354334982,40.37008559167617],[-105.23122632404906,40.37036184695028],[-105.23148690397379,40.370249030594714],[-105.23150523741171,40.370299881482175],[-105.23146502704192,40.37040617930456],[-105.23152960712616,40.37038749995852],[-105.231165550834,40.37082698012737],[-105.23121014172483,40.370968589869705],[-105.23109109659201,40.371034927818584],[-105.2310327370213,40.3712090546238],[-105.23095059635745,40.371285815157066],[-105.23121743039425,40.371397636023936],[-105.23160935096712,40.37112605572335],[-105.23189160130994,40.37109727436798],[-105.23203348145842,40.371318994006835],[-105.23187630499422,40.37149506413928]]}},{"type":"Feature","properties":{"depth_ft":20,"elevation_ft":5458.0,"major":false},"geometry":{"type":"LineString","coordinates":[[-105.23223511407062,40.3703980574067],[-105.23208274261528,40.37036473521298],[-105.23199222021832,40.370291676202235],[-105.23190851933532,40.370170912633675],[-105.23190556872389,40.37010057320566],[-105.23234824204371,40.37004449056626],[-105.23244741176977,40.369916404228185],[-105.23259363820786,40.36995304040378],[-105.23291324359353,40.369935269738214],[-105.2330884424618,40.36982880674469],[-105.23298381001526,40.36995135494803],[-105.23271920528957,40.370003292719076],[-105.23245756550703,40.37014466302059],[-105.23241363243662,40.370119621225996],[-105.23239985250454,40.37040489418973],[-105.23223511407062,40.3703980574067]]}},{"type":"Feature","properties":{"depth_ft":20,"elevation_ft":5458.0,"major":false},"geometry":{"type":"LineString","coordinates":[[-105.23373734268006,40.3692004862944],[-105.23369560821487,40.36926117575543],[-105.23373734268006,40.3692004862944]]}},{"type":"Feature","properties":{"depth_ft":10,"elevation_ft":5468.0,"major":false},"geometry":{"type":"LineString","coordinates":[[-105.23323646627291,40.37034433296163],[-105.2330186885833,40.37051925743608],[-105.23291408667836,40.37073331680735],[-105.23239681020408,40.37096287560459],[-105.23224279684777,40.371362402142836],[-105.23205813752399,40.37146136606822],[-105.23142221912023,40.37208422140937],[-105.2312542596845,40.37230145566758],[-105.23091529327968,40.372559734148545],[-105.23109249488238,40.37275786269933],[-105.2311463547421,40.37305553772436],[-105.23103643997229,40.37342325551257],[-105.23060666043857,40.373370112817476],[-105.23052311847016,40.37346447564424],[-105.23047481473958,40.373667725729234],[-105.2304288096747,40.373680685616904],[-105.23038062593612,40.37361313105443],[-105.2302847978181,40.37369926334702],[-105.23024019919262,40.37360285455506],[-105.23042715110773,40.37334133290662],[-105.23045791031377,40.37324395201137],[-105.23042757603908,40.37319709968203],[-105.23004992890328,40.37315461586913],[-105.2296812296911,40.37339412587513],[-105.22938399745073,40.373259166150405],[-105.2292356181169,40.37312422916016],[-105.22906640342498,40.372858013761814],[-105.22863338534178,40.371808588562],[-105.22850681474522,40.371288854144154],[-105.22850423448865,40.37105126900815],[-105.22857871732941,40.37090348241639],[-105.22886711253696,40.37064428818095],[-105.22960576225185,40.370215657313054],[-105.22992030353697,40.37010904127645],[-105.23048022788502,40.37003500613687],[-105.23099035978075,40.369853315339284],[-105.23117940892662,40.36973873689918],[-105.23136232067839,40.36969039500781],[-105.23160249232546,40.36940795469488],[-105.23204551519188,40.36920837098668],[-105.23237750684515,40.369265112126975],[-105.23258606712172,40.369243149442404],[-105.23283596075808,40.369303739978946],[-105.23295268335721,40.3692761145136],[-105.23308742915683,40.369328414839664],[-105.23334590909737,40.36920046383039],[-105.2335250442462,40.36916766145986],[-105.23392003588778,40.36871238606382],[-105.23422986459161,40.368484863124735],[-105.23456080164175,40.36795798836145],[-105.2352057401681,40.36572333539252],[-105.23539228350128,40.365340271564705],[-105.23540541788718,40.365139113760975]]}},{"type":"Feature","properties":{"depth_ft":10,"elevation_ft":5468.0,"major":false},"geometry":{"type":"LineString","coordinates":[[-105.23581581099815,40.365297438507724],[-105.23555055236353,40.36540679107536],[-105.23542699506241,40.36559937078849],[-105.2346574350241,40.368103777717415],[-105.23463044301673,40.36836686866175],[-105.23447502832546,40.368714762640124],[-105.23415105944662,40.368975589632186],[-105.23386584680439,40.36967239215087],[-105.23362946473897,40.36988222838993],[-105.23341529249524,40.37017941247529],[-105.23323646627291,40.37034433296163]]}},{"type":"Feature","properties":{"depth_ft":10,"elevation_ft":5468.0,"major":false},"geometry":{"type":"LineString","coordinates":[[-105.23331312834954,40.369331964769145],[-105.2333382494826,40.3693274988227],[-105.23331312834954,40.369331964769145]]}},{"type":"Feature","properties":{"depth_ft":10,"elevation_ft":5468.0,"major":false},"geometry":{"type":"LineString","coordinates":[[-105.22979090433847,40.37385736136179],[-105.2300406169032,40.37359393336209],[-105.23017945252329,40.3733473572419],[-105.23014373659316,40.37327043650297],[-105.23005930921519,40.373248672333936],[-105.22999027940344,40.373288111993645],[-105.22976343740207,40.37350426848422],[-105.22958439837961,40.37375223928702]]}}]}
