{"type":"FeatureCollection","name":"Lake Isabel 2012 bathymetric contours","metadata":{"water":"Lake Isabel","survey_year":2012,"reference_elevation_ft":8477.7,"contour_interval_ft":10,"depth_reference":"Feet below the documented reference elevation","vertical_datum":"NAVD88 (GEOID12A)","source":"U.S. Bureau of Reclamation","source_url":"https://www.usbr.gov/tsc/techreferences/reservoir/Lake%20Isabel%202012%20Reservoir%20Survey.zip","disclaimer":"Historical survey contours are for planning only and do not represent current depth or navigation hazards."},"features":[{"type":"Feature","properties":{"depth_ft":70,"elevation_ft":8408.0,"major":false},"geometry":{"type":"LineString","coordinates":[[-105.05059511572503,37.98426699813155],[-105.05053992737534,37.984332085302526],[-105.05041138706622,37.98432086222766],[-105.05059511572503,37.98426699813155]]}},{"type":"Feature","properties":{"depth_ft":60,"elevation_ft":8418.0,"major":false},"geometry":{"type":"LineString","coordinates":[[-105.05138032648428,37.98467071723074],[-105.05151749081168,37.98450589366764],[-105.05168041419842,37.984422778422314],[-105.05157548824751,37.98423092246126],[-105.05115318406443,37.98419460293363],[-105.05105740360165,37.98423024212232],[-105.05094849420728,37.9841557016594],[-105.05063319004071,37.98423597341323],[-105.05039244343683,37.9842389028237],[-105.05031339909439,37.98428102921478],[-105.05033228065155,37.98441566738682],[-105.05056473941227,37.98480074061215],[-105.05071836814427,37.98518901000872],[-105.05082893634338,37.98528471668469],[-105.05110302401296,37.98535503289038],[-105.05125438795797,37.98527705495435],[-105.05124059750074,37.98501734040654],[-105.05129700071177,37.98485316504168],[-105.05129058766421,37.984715033565486],[-105.05138032648428,37.98467071723074]]}},{"type":"Feature","properties":{"depth_ft":60,"elevation_ft":8418.0,"major":false},"geometry":{"type":"LineString","coordinates":[[-105.05184947939146,37.98433747885267],[-105.05185775556984,37.984372360509894],[-105.05190746681296,37.98436482238688],[-105.05193485526688,37.98430292215333],[-105.05188598394083,37.98426467344493],[-105.05184947939146,37.98433747885267]]}},{"type":"Feature","properties":{"depth_ft":60,"elevation_ft":8418.0,"major":false},"geometry":{"type":"LineString","coordinates":[[-105.0514629659002,37.9845024492048],[-105.0514035137206,37.98438632369755],[-105.0514561142724,37.98440353788804],[-105.0514629659002,37.9845024492048]]}},{"type":"Feature","properties":{"depth_ft":50,"elevation_ft":8428.0,"major":true},"geometry":{"type":"LineString","coordinates":[[-105.05164383773902,37.985435808000084],[-105.05177384908541,37.98531928329312],[-105.05205536949302,37.98526290062227],[-105.05207764196749,37.985017109975516],[-105.05203658473131,37.98504973569962],[-105.05200792860309,37.98521278418155],[-105.05195451691637,37.985260735640225],[-105.05177498035384,37.985253423549985],[-105.05167834235607,37.98518156397855],[-105.05167235418641,37.985124550121554],[-105.05201441730223,37.98468770654873],[-105.05220315075083,37.98461435075299],[-105.05234550326708,37.984648191318],[-105.05243533913035,37.98460822272082],[-105.05246389830324,37.98454844142839],[-105.05242221499742,37.9843165662735],[-105.05226026412936,37.98425412435168],[-105.05203569489129,37.984272628100875],[-105.05183300849895,37.984150433282785],[-105.05104076485159,37.984068735210656],[-105.05085091327919,37.98408220971095],[-105.05056492008477,37.984223287016746],[-105.0501609264835,37.98418647685393],[-105.0502462705853,37.98446563011779],[-105.05068048853455,37.98531285710331],[-105.0509435958969,37.98539827027914],[-105.05131764866114,37.98542672797036],[-105.05150307999138,37.98537739099856],[-105.05164383773902,37.985435808000084]]}},{"type":"Feature","properties":{"depth_ft":40,"elevation_ft":8438.0,"major":false},"geometry":{"type":"LineString","coordinates":[[-105.05004123203672,37.98377490129932],[-105.05009386284938,37.98389458114164],[-105.0501893079111,37.98396103787175],[-105.05027086934116,37.984128242410186],[-105.05034418759587,37.98418082506138],[-105.0505559629314,37.9841879855144],[-105.05085745423234,37.98404380384121],[-105.05141095683229,37.98401101552537],[-105.05207131126569,37.98418404656135],[-105.05299635619104,37.98418493738542],[-105.0531977186886,37.984262819083725],[-105.05348125114776,37.98446974455767],[-105.05341865447859,37.9845242733818],[-105.05310214505523,37.98462502932686],[-105.05301527975249,37.984814083593015],[-105.05271961160612,37.985150306920765],[-105.0526569312237,37.985254980417615],[-105.05269079361537,37.98532868525934],[-105.05265429492415,37.985349958903605],[-105.05257549601868,37.98537524916205],[-105.0524503790647,37.98532113624049],[-105.05215743609074,37.98543317469606],[-105.05190928546051,37.98545670093601],[-105.05187235105406,37.985498538640364],[-105.05149603955775,37.98548202843737],[-105.05140287268829,37.98553751489096],[-105.0511882036796,37.98546180950214],[-105.05090131515968,37.98544516621031],[-105.05059999056913,37.985325593315515],[-105.05032731223795,37.9848467966322],[-105.04983623084738,37.98385303801874],[-105.04986543071172,37.98380200117354],[-105.05004123203672,37.98377490129932]]}},{"type":"Feature","properties":{"depth_ft":30,"elevation_ft":8448.0,"major":false},"geometry":{"type":"LineString","coordinates":[[-105.0494965599909,37.98351432887236],[-105.04955788001187,37.98318575972494],[-105.04968960732184,37.983245477201706],[-105.04988521664337,37.983631815020786],[-105.05002459824692,37.98365560465373],[-105.0502098427911,37.983776155800136],[-105.05031732364455,37.98390474271642],[-105.0503669716114,37.98407585570791],[-105.05047954440161,37.98411842647465],[-105.05085519251405,37.984009668492746],[-105.05145327829183,37.98394445998762],[-105.05213236981243,37.984126097862095],[-105.05234013634808,37.984089371676134],[-105.05273029619497,37.9841276554335],[-105.05326567481264,37.984091844401426],[-105.05376251331677,37.98415664635542],[-105.05387177971033,37.98421550475969],[-105.05406130186331,37.984505913987846],[-105.0545089620977,37.98478435667542],[-105.05392904171222,37.98476354729322],[-105.05351492389639,37.98501148570849],[-105.05378202239528,37.98520306657982],[-105.05377271916971,37.985403248982415],[-105.0536603029177,37.98546855637831],[-105.05335811407396,37.985509004563575],[-105.05323833617584,37.98556156084555],[-105.05320388472028,37.985627790000215],[-105.05329074386462,37.985715276774506],[-105.05329012830947,37.985978045799605],[-105.05322515944911,37.986088441200785],[-105.0528881306341,37.986258997710564],[-105.05257224697667,37.9859632667222],[-105.05236609644494,37.98583170659531],[-105.05170298917537,37.985633646431864],[-105.05081921139963,37.98546211939337],[-105.05050066320267,37.98534554855667],[-105.05023510890719,37.98487823936501],[-105.04980113248183,37.983950729869996],[-105.0494965599909,37.98351432887236]]}},{"type":"Feature","properties":{"depth_ft":30,"elevation_ft":8448.0,"major":false},"geometry":{"type":"LineString","coordinates":[[-105.05291425550286,37.98565719163257],[-105.05284623822702,37.98570634233502],[-105.05280680525598,37.985635862697876],[-105.05282783280403,37.985611497663605],[-105.05291425550286,37.98565719163257]]}},{"type":"Feature","properties":{"depth_ft":20,"elevation_ft":8458.0,"major":false},"geometry":{"type":"LineString","coordinates":[[-105.0521098652471,37.985830836289736],[-105.05234790354297,37.985880653144164],[-105.05298846322783,37.986453011786104],[-105.05318301721745,37.98656691078],[-105.05329864039412,37.98657070643843],[-105.05359632412444,37.98643321577494],[-105.05358073333608,37.98626136453765],[-105.0534672835415,37.98610645646971],[-105.05351523149551,37.98590868990939],[-105.05348507303648,37.98582713821041],[-105.053644321671,37.98559613261086],[-105.05447372345802,37.98534302009099],[-105.05448996434758,37.98527846613845],[-105.05429870558984,37.98498811417191],[-105.0544829648775,37.984957826701184],[-105.05492417118148,37.98497460547487],[-105.05525073731609,37.984888001938074],[-105.05502267666658,37.98480437751722],[-105.05498581031308,37.98469095907264],[-105.05465359470189,37.98447562752346],[-105.0545451010496,37.984320281429774],[-105.05447653723033,37.98412728681022],[-105.0543921322234,37.98405387997672],[-105.05394615989329,37.984095343587306],[-105.05297304525583,37.984010917789895],[-105.05274760779342,37.98406677638355],[-105.05238234177297,37.98395310499365],[-105.05214683145167,37.983978024838436],[-105.05208880427061,37.98390297753327],[-105.05226332957528,37.98381016582647],[-105.05232367614967,37.98365653475302],[-105.0522656912616,37.98358109485881],[-105.05209235754413,37.983547396989835],[-105.05183784078467,37.98357317029601],[-105.05172601870451,37.98387709592249],[-105.05167240386218,37.98392807921996],[-105.05144017909439,37.98390583437947],[-105.05073037006545,37.98398635513108],[-105.0503786674638,37.983567969772345],[-105.05009305398978,37.9834668715651],[-105.04992989120444,37.983500727574615],[-105.04982313423811,37.983399471838915],[-105.04975357818208,37.98322483545483],[-105.04959923126259,37.98305405694439],[-105.049476402255,37.98300936848776],[-105.04928300559445,37.98302534248698],[-105.04945068366636,37.983290321124684],[-105.04945186969611,37.983576887802315],[-105.04973933542895,37.98401601761085],[-105.05014898119207,37.98493172263647],[-105.05039190074211,37.985369463653974],[-105.05142822862383,37.98568015840419],[-105.0521098652471,37.985830836289736]]}},{"type":"Feature","properties":{"depth_ft":20,"elevation_ft":8458.0,"major":false},"geometry":{"type":"LineString","coordinates":[[-105.05501589952765,37.984722744962625],[-105.05496621227671,37.984794013178934],[-105.05501589952765,37.984722744962625]]}},{"type":"Feature","properties":{"depth_ft":10,"elevation_ft":8468.0,"major":false},"geometry":{"type":"LineString","coordinates":[[-105.04960541639335,37.983969212917614],[-105.05030723588267,37.98543259678795],[-105.05068329247585,37.985502205949714],[-105.0513965780695,37.985727083198945],[-105.05231218960643,37.985922100978634],[-105.05289782496958,37.98645441907705],[-105.05344410929669,37.986816989654656],[-105.05362498394015,37.986753232527576],[-105.05370463066298,37.98666933732086],[-105.05375048372824,37.98654304444328],[-105.05375207308849,37.98641967547963],[-105.05362007586362,37.98602534998696],[-105.05363680595585,37.9858770908177],[-105.05368688192493,37.985805125473554],[-105.05392400260118,37.98571304718341],[-105.05424750870408,37.98551825141877],[-105.05457678866445,37.985471302567575],[-105.05475496315901,37.9853954800976],[-105.05493696307357,37.98539534577041],[-105.05500376115407,37.98531849109465],[-105.05498820817493,37.98506212567109],[-105.05511886645101,37.985003768424896],[-105.05553353653934,37.98494633050742],[-105.05576578469146,37.98473902982841],[-105.05589113211036,37.984687549702194],[-105.05581679286286,37.98466414697982],[-105.05574407871738,37.984553499535814],[-105.05549032252,37.98447173082348],[-105.05525957689821,37.984451977701475],[-105.05511382511976,37.98436219449075],[-105.05513822086864,37.984294353739955],[-105.05535690582558,37.98423618384423],[-105.05542796019728,37.98417707099339],[-105.05539371895843,37.98404977201441],[-105.05527098280437,37.98397422481154],[-105.05472552640298,37.983889558287714],[-105.05430264478431,37.98392002189608],[-105.05412024437358,37.9840205733749],[-105.05369302737739,37.98399664647787],[-105.05320726648505,37.983882821037305],[-105.05314680311557,37.98379143011147],[-105.0532172066716,37.983704043099365],[-105.0531627189807,37.98362992242186],[-105.05282993058218,37.98352657455262],[-105.05176106158078,37.983468189245315],[-105.05150041826666,37.98347615574311],[-105.05149375121516,37.98370391833037],[-105.05145106064016,37.983808826662376],[-105.05101874763372,37.98385433782344],[-105.05091291938277,37.98390514285161],[-105.05043536921855,37.98353361214425],[-105.05006743585473,37.98336093926942],[-105.04974385272496,37.98310941683582],[-105.0495803631337,37.982903290060385],[-105.04919196625892,37.98291323341389],[-105.04919793569707,37.9830360781046],[-105.04938904244932,37.98329309959077],[-105.04940579956745,37.98360920156498],[-105.04960541639335,37.983969212917614]]}}]}
