{"type":"FeatureCollection","name":"Lake Estes 2001 bathymetric contours","metadata":{"water":"Lake Estes","survey_year":2001,"reference_elevation_ft":7475.0,"contour_interval_ft":10,"depth_reference":"Feet below the documented reference elevation","vertical_datum":"Reclamation vertical datum tied to NGVD29","source":"U.S. Bureau of Reclamation","source_url":"https://www.usbr.gov/tsc/techreferences/reservoir/Lake%20Estes%202001%20Survey.gdb.zip","disclaimer":"Historical survey contours are for planning only and do not represent current depth or navigation hazards."},"features":[{"type":"Feature","properties":{"depth_ft":10,"elevation_ft":7465.0,"major":false},"geometry":{"type":"LineString","coordinates":[[-105.49620986243544,40.37384155620464],[-105.49633189381896,40.37382920752247],[-105.49637854946197,40.373888227000556],[-105.4966441410179,40.37398705584666],[-105.49651894029977,40.37405196548127],[-105.49646343613323,40.37397499326506],[-105.4963161698234,40.374030223275575],[-105.4962784591719,40.37394187247443],[-105.4960837376274,40.37400104707903],[-105.49606031136818,40.373903900543965],[-105.49591975161812,40.37396810204008],[-105.49588290864966,40.373872124872804],[-105.4957197984009,40.37394415962895],[-105.4954331390285,40.37387474858365],[-105.49527601879815,40.37389100529343],[-105.49495930065765,40.37384307652164],[-105.49487568262536,40.37379384164663],[-105.49475348759665,40.373818383791225],[-105.49469533461931,40.37377624304817],[-105.4940204928694,40.37373097675457],[-105.49270156981136,40.373548127488846],[-105.49264334437765,40.37349308823945],[-105.492332986704,40.3734725984299],[-105.4923011465063,40.373428620999],[-105.49235966071971,40.373352751251836],[-105.49227485146044,40.373145848443],[-105.4921542210858,40.373052617590595],[-105.49218450220906,40.37294122370408],[-105.49209539080341,40.37278945419951],[-105.49210449799476,40.37268619038675],[-105.49202147134449,40.37262438022438],[-105.49201344552726,40.372523162295586],[-105.49208472797048,40.372328624371],[-105.4920631695024,40.37228315077065],[-105.49210766961352,40.372114725645865],[-105.49216329928453,40.37205845010638],[-105.49234184061378,40.37208527736322],[-105.4923788959653,40.37202987497293],[-105.49253837250319,40.37195828684804],[-105.4924967614624,40.37175899877356],[-105.49242798502573,40.37169281920572],[-105.49245612439799,40.37159200981412],[-105.49241951361525,40.37143359299745],[-105.49223410201067,40.371325280114924],[-105.49216340515063,40.37120337930364],[-105.4921616204858,40.37111828339709]]}},{"type":"Feature","properties":{"depth_ft":10,"elevation_ft":7465.0,"major":false},"geometry":{"type":"LineString","coordinates":[[-105.49620986243544,40.37384155620464],[-105.49607387669415,40.37382141610145],[-105.49597799739942,40.37385088219455],[-105.49567149658674,40.37374546062127],[-105.4955576001682,40.37358829829147],[-105.49546435493767,40.37355013092303],[-105.49538880864066,40.37340063310697],[-105.49526531872826,40.37334790169313],[-105.49486352105123,40.373264698110255],[-105.49433637042853,40.373325413520725],[-105.49384286924186,40.37332044317739],[-105.49364870652259,40.37324302176256],[-105.49353488315883,40.37313102424879],[-105.49355912802696,40.37311048744946],[-105.49351582514583,40.3730298256324],[-105.4936064472503,40.37291961541775],[-105.49373751557933,40.37287479617968],[-105.49352349037642,40.37276332544412],[-105.49322740831417,40.37278002093436],[-105.49301564519838,40.37264457455617],[-105.49297449378726,40.37249203588351],[-105.49301257956756,40.3723641937068],[-105.4927302067744,40.37179664786704],[-105.49266925133028,40.37173869500205],[-105.49265378239616,40.371630767167034],[-105.49260403761309,40.37163163218161],[-105.49262217416296,40.37144131159446],[-105.49285070312209,40.37117048341873],[-105.49257075253564,40.37124000645932],[-105.49243079477174,40.37112104630833],[-105.49238138102295,40.37112379800373],[-105.49241524829414,40.37106888890932],[-105.49241045436882,40.370935316269936],[-105.49223616248926,40.37090475191122],[-105.49228006792235,40.37094226839022],[-105.4921616204858,40.37111828339709]]}},{"type":"Feature","properties":{"depth_ft":10,"elevation_ft":7465.0,"major":false},"geometry":{"type":"LineString","coordinates":[[-105.50177076236314,40.378056445396446],[-105.50185391019987,40.37810600398001],[-105.50176870597778,40.37809106980129],[-105.50177076236314,40.378056445396446]]}},{"type":"Feature","properties":{"depth_ft":10,"elevation_ft":7465.0,"major":false},"geometry":{"type":"LineString","coordinates":[[-105.50187806275811,40.37788313000971],[-105.50204025723887,40.37788385044905],[-105.50186287848327,40.37791934238296],[-105.50182033075367,40.37789365891625],[-105.50187806275811,40.37788313000971]]}},{"type":"Feature","properties":{"depth_ft":10,"elevation_ft":7465.0,"major":false},"geometry":{"type":"LineString","coordinates":[[-105.50189877890716,40.37816502121189],[-105.50172048458936,40.37816410088207],[-105.50160444986203,40.378126595360065],[-105.50157357513734,40.378073346152064],[-105.50132013047286,40.378068374413715],[-105.50106245533983,40.3779548855574],[-105.50125627466485,40.377826018912025],[-105.5013486582278,40.377836348629316],[-105.50143612066962,40.377850296034566],[-105.50151523948435,40.37795601167503],[-105.50180905273041,40.377979735507424],[-105.50186390203834,40.378055600076735],[-105.50184627921338,40.37797424487786],[-105.5017998021656,40.37796345825089],[-105.50182193129336,40.37794376904113],[-105.50172887553005,40.37790424684057],[-105.50179946588597,40.37789418068792],[-105.50185330873643,40.377944501630274],[-105.50199329278628,40.37795639800348],[-105.50194528777945,40.37796618471199],[-105.50198420472927,40.37810243365606],[-105.50189877890716,40.37816502121189]]}},{"type":"Feature","properties":{"depth_ft":10,"elevation_ft":7465.0,"major":false},"geometry":{"type":"LineString","coordinates":[[-105.50473793556175,40.377607699704],[-105.50468170228376,40.37760312695217],[-105.50470631702476,40.37754183398155],[-105.50466841421431,40.37753494774293],[-105.504838425471,40.37744573927638],[-105.50478679414427,40.377504461287884],[-105.50484870262126,40.37749825269707],[-105.5048177662756,40.37763716757165],[-105.50473793556175,40.377607699704]]}},{"type":"Feature","properties":{"depth_ft":10,"elevation_ft":7465.0,"major":false},"geometry":{"type":"LineString","coordinates":[[-105.5050519807074,40.37729749809323],[-105.50505377864123,40.37734141836338],[-105.50498378182792,40.37736956957393],[-105.50494609514351,40.3773057377238],[-105.5050519807074,40.37729749809323]]}},{"type":"Feature","properties":{"depth_ft":10,"elevation_ft":7465.0,"major":false},"geometry":{"type":"LineString","coordinates":[[-105.49576101045878,40.377176749705306],[-105.49601432434132,40.37725952001719],[-105.4961790006827,40.37722093404837],[-105.49623255298489,40.37728681632437],[-105.49682704512826,40.37753318810872],[-105.49749835373017,40.37764247314735],[-105.4980175994929,40.377813657074974],[-105.49827084437337,40.37780193084438],[-105.49849246927302,40.37784111443623]]}},{"type":"Feature","properties":{"depth_ft":30,"elevation_ft":7445.0,"major":false},"geometry":{"type":"LineString","coordinates":[[-105.49367205555326,40.37684176093733],[-105.4937498288091,40.376785949706886],[-105.49382103210395,40.37683423096862],[-105.49374651388388,40.376811590448],[-105.49367205555326,40.37684176093733]]}},{"type":"Feature","properties":{"depth_ft":30,"elevation_ft":7445.0,"major":false},"geometry":{"type":"LineString","coordinates":[[-105.49362180874495,40.37680607289729],[-105.49368462244006,40.376795096247264],[-105.49367205555326,40.37684176093733]]}},{"type":"Feature","properties":{"depth_ft":10,"elevation_ft":7465.0,"major":false},"geometry":{"type":"LineString","coordinates":[[-105.5028373345981,40.37658112179491],[-105.50290713242346,40.376606672728236],[-105.50286703314065,40.37666020976449],[-105.5028373345981,40.37658112179491]]}},{"type":"Feature","properties":{"depth_ft":10,"elevation_ft":7465.0,"major":false},"geometry":{"type":"LineString","coordinates":[[-105.50320169817974,40.376569980916834],[-105.50346695363712,40.37662792045524],[-105.50363454174136,40.376579579336834],[-105.50390332338559,40.37665941129937],[-105.50386980378565,40.376729010622114],[-105.50405916746989,40.3766749151433],[-105.50444571839874,40.376773222831694],[-105.50488476507971,40.37680551141056],[-105.50489042917778,40.37686928070001],[-105.5052384523421,40.37697759120016],[-105.5051323948588,40.37702573379398],[-105.50499103296163,40.37699437304586],[-105.5049572635992,40.3770172100513],[-105.50498272971625,40.37704201592481],[-105.50489338121992,40.37702999044583],[-105.5048141249403,40.37708718712407],[-105.50448998763093,40.377148202116594],[-105.50448076456743,40.37718189833729],[-105.50439481592214,40.37717333694253],[-105.50428669262001,40.37723085135943],[-105.50420216685522,40.37722842374036],[-105.50414833469567,40.37717956374963],[-105.5040446874662,40.377201646465224],[-105.50398414211594,40.3770751929323],[-105.50401323405795,40.37702619040557],[-105.50399435722385,40.376846276839814],[-105.5039166459967,40.376771048954815],[-105.50373645738644,40.3766908971935],[-105.50349311455123,40.37666654180777],[-105.50335957777467,40.37660581303886],[-105.50322258868745,40.3766469868563],[-105.50317907421066,40.3765912455549],[-105.50320169817974,40.376569980916834]]}},{"type":"Feature","properties":{"depth_ft":10,"elevation_ft":7465.0,"major":false},"geometry":{"type":"LineString","coordinates":[[-105.502126755776,40.37640706945295],[-105.50220642145818,40.37647343572265],[-105.50233949059673,40.3764652935106],[-105.50269465251118,40.376556078672145],[-105.50258922624151,40.3766041162612],[-105.50199422792335,40.37651864147324],[-105.50192575798395,40.37650411778854],[-105.50185114988342,40.37642381449384],[-105.5020246826193,40.37643914157031],[-105.502126755776,40.37640706945295]]}},{"type":"Feature","properties":{"depth_ft":30,"elevation_ft":7445.0,"major":false},"geometry":{"type":"LineString","coordinates":[[-105.49362180874495,40.37680607289729],[-105.49330714942366,40.376783179977146],[-105.49318012277708,40.37673644956115],[-105.49304807138878,40.37661074077798],[-105.49292294578811,40.37655349030902],[-105.49302456364966,40.37644627038577],[-105.49291855383566,40.3764139144843],[-105.49292867452887,40.376363564475945],[-105.49298575766237,40.37628569954809],[-105.49306992058455,40.37629719263571],[-105.49310856703379,40.37634945753515],[-105.49309006325366,40.37643454402053],[-105.4931673202422,40.376442115422236],[-105.4932467406563,40.376601549310195],[-105.49362180874495,40.37680607289729]]}},{"type":"Feature","properties":{"depth_ft":20,"elevation_ft":7455.0,"major":false},"geometry":{"type":"LineString","coordinates":[[-105.49605897721993,40.37625443097928],[-105.4960760592324,40.37627435368473],[-105.49603385219471,40.37625717514497],[-105.49605897721993,40.37625443097928]]}},{"type":"Feature","properties":{"depth_ft":30,"elevation_ft":7445.0,"major":false},"geometry":{"type":"LineString","coordinates":[[-105.49160114331346,40.37590557500384],[-105.4917432715307,40.37601483494927],[-105.49193492867921,40.37602912471765],[-105.49191542601419,40.376065583166515],[-105.49199565387228,40.37611971556914],[-105.49197558935695,40.37617735965407],[-105.49183081979908,40.3761993097241],[-105.49170646000498,40.37608615337479],[-105.49160114331346,40.37590557500384]]}},{"type":"Feature","properties":{"depth_ft":30,"elevation_ft":7445.0,"major":false},"geometry":{"type":"LineString","coordinates":[[-105.49258105001158,40.37553231785504],[-105.49240338690753,40.37549936607693],[-105.49257746348735,40.37550761242002]]}},{"type":"Feature","properties":{"depth_ft":20,"elevation_ft":7455.0,"major":false},"geometry":{"type":"LineString","coordinates":[[-105.49615952806667,40.37536779023486],[-105.49612625508307,40.375362441376666],[-105.49615952806667,40.37536779023486]]}},{"type":"Feature","properties":{"depth_ft":40,"elevation_ft":7435.0,"major":false},"geometry":{"type":"LineString","coordinates":[[-105.48828120052829,40.375219030379924],[-105.48863187157355,40.37526887016856],[-105.48817828247515,40.3753352259052],[-105.48794520641769,40.37551106799505],[-105.48794990131132,40.375438559532476],[-105.48788482404349,40.3753738889089],[-105.4879668485256,40.37527447592517],[-105.4882022264133,40.375284902923],[-105.48828120052829,40.375219030379924]]}},{"type":"Feature","properties":{"depth_ft":40,"elevation_ft":7435.0,"major":false},"geometry":{"type":"LineString","coordinates":[[-105.48874781013969,40.37515319604918],[-105.48876769684172,40.375195616148474],[-105.48873702680592,40.37523360670542],[-105.48862887600103,40.375248358674206]]}},{"type":"Feature","properties":{"depth_ft":40,"elevation_ft":7435.0,"major":false},"geometry":{"type":"LineString","coordinates":[[-105.48862887600103,40.375248358674206],[-105.4885539779238,40.37524193282089],[-105.48862887600103,40.375248358674206]]}},{"type":"Feature","properties":{"depth_ft":40,"elevation_ft":7435.0,"major":false},"geometry":{"type":"LineString","coordinates":[[-105.48862887600103,40.375248358674206],[-105.4886070406235,40.37521780021677],[-105.48874781013969,40.37515319604918]]}},{"type":"Feature","properties":{"depth_ft":40,"elevation_ft":7435.0,"major":false},"geometry":{"type":"LineString","coordinates":[[-105.4889488107127,40.37512301922722],[-105.48902777125666,40.3751353802308],[-105.48894162088851,40.37517133563065],[-105.4889488107127,40.37512301922722]]}},{"type":"Feature","properties":{"depth_ft":20,"elevation_ft":7455.0,"major":false},"geometry":{"type":"LineString","coordinates":[[-105.49619185493344,40.37494231183013],[-105.4962894037055,40.375030908633306],[-105.49632315627792,40.37515787423034],[-105.49615952806667,40.37536779023486]]}},{"type":"Feature","properties":{"depth_ft":20,"elevation_ft":7455.0,"major":false},"geometry":{"type":"LineString","coordinates":[[-105.49536277736541,40.37451405710247],[-105.4957497687324,40.37470268782058],[-105.49604602982116,40.37479845080193],[-105.49619185493344,40.37494231183013]]}},{"type":"Feature","properties":{"depth_ft":10,"elevation_ft":7465.0,"major":false},"geometry":{"type":"LineString","coordinates":[[-105.49559609251786,40.374242308874145],[-105.49411850737273,40.3740313808513],[-105.49389639900681,40.37404833934578],[-105.49378531740807,40.37414351768039],[-105.49364247919922,40.37414078562628],[-105.49329660215163,40.37393180842145],[-105.49299398058953,40.37390454202651]]}},{"type":"Feature","properties":{"depth_ft":10,"elevation_ft":7465.0,"major":false},"geometry":{"type":"LineString","coordinates":[[-105.48826307442054,40.37625939395759],[-105.48846012309114,40.376664638647284],[-105.48861073845947,40.37686387838333],[-105.48905816039236,40.37780786493528],[-105.48920731973149,40.37800765217418],[-105.4894589600234,40.378219343666665],[-105.4896531910467,40.37832019656281],[-105.48999219338941,40.378395649557575],[-105.49134959331259,40.37826902488819],[-105.49128320014442,40.37818941429945],[-105.49129388323631,40.37809027552336],[-105.49138192801881,40.37803021044245],[-105.49156855352066,40.37802107319149],[-105.49166430885705,40.377894810030334],[-105.49159371472815,40.377923170155384]]}},{"type":"Feature","properties":{"depth_ft":10,"elevation_ft":7465.0,"major":false},"geometry":{"type":"LineString","coordinates":[[-105.49849246927302,40.37784111443623],[-105.49917211973579,40.377964658052626],[-105.49995979868457,40.37797727747255],[-105.50030252391038,40.37807993710131],[-105.50041636711221,40.378057980180074],[-105.50057558563026,40.37785640054535],[-105.50081160524213,40.37793412881049],[-105.50096156401165,40.377902849009295],[-105.50094413511785,40.37788318280301],[-105.50100143213248,40.37791317672489],[-105.5011575670714,40.377797883469164],[-105.50109735973811,40.37766546018105],[-105.50120243106298,40.377636612996916],[-105.5011593583549,40.37759955564396],[-105.50118807291132,40.37759132028843],[-105.50109904156267,40.37760539030289],[-105.50096287664365,40.37745979999614],[-105.50091315503079,40.37704231752351],[-105.50102738491093,40.37694340481648],[-105.5012148056755,40.37693251387669],[-105.50129378104074,40.37687690651338],[-105.50134656686268,40.37677221502169],[-105.50148407023498,40.37670656516678],[-105.50161831681328,40.3765706874751],[-105.50170629868795,40.37641794661908],[-105.5016841981438,40.37643188909777],[-105.50168054348579,40.37635954592496],[-105.50139981875866,40.37637801551283],[-105.50147870605876,40.37653263007483],[-105.50144434980365,40.376578847387904],[-105.50102228920524,40.37676981103632],[-105.50063834355326,40.37681572085785],[-105.50058835542302,40.3768837243604],[-105.50061695277994,40.37696270753689],[-105.5004753843753,40.376889513020544],[-105.50032352328365,40.37688481512511],[-105.50021807380185,40.37698730159622],[-105.50001849521192,40.376866214628436],[-105.49993635232808,40.376857198728054],[-105.4997702846146,40.376932520012986],[-105.49964085160258,40.37676215540245],[-105.49935891526034,40.37665691663028],[-105.49928831559725,40.37651994609493],[-105.49963698147106,40.37642901524585],[-105.4995631308195,40.37637575273247],[-105.49932162663822,40.376334101620884],[-105.49930188697796,40.376205085451566],[-105.49945023388432,40.37604861906859],[-105.49970385243954,40.37600112786185],[-105.49969850294204,40.37594888416091],[-105.49974516304708,40.3759882295962],[-105.4997804716552,40.37593789975178],[-105.49931107020949,40.37557992462029],[-105.49926062635006,40.3755022630393],[-105.49927801868941,40.37542327439581],[-105.49908168084312,40.37506393707053],[-105.49877580201928,40.374765770511914],[-105.49854996780897,40.3746724371158],[-105.49826441132129,40.37461845313771],[-105.49816780047763,40.37465212321704],[-105.49785028979161,40.374540714666345],[-105.49786027893617,40.374578710189475],[-105.49777684155599,40.374566402845595],[-105.49779673127661,40.37453945822703],[-105.49757073775994,40.37454706736967],[-105.4972465476939,40.37445082309743],[-105.49710302673628,40.37447943340751],[-105.49709156961536,40.37444169715382],[-105.49703581611874,40.37444323036124],[-105.49683636325484,40.37450928036887],[-105.4966189850242,40.3745102180607],[-105.4964281180249,40.374469023477495],[-105.49625071245494,40.37435246965569],[-105.49559609251786,40.374242308874145]]}},{"type":"Feature","properties":{"depth_ft":10,"elevation_ft":7465.0,"major":false},"geometry":{"type":"LineString","coordinates":[[-105.49159371472815,40.377923170155384],[-105.49148171716561,40.377902852605445],[-105.49156142283269,40.37782434613643],[-105.49164035587269,40.37784082288368],[-105.49159850608893,40.37787833515232],[-105.49163858521557,40.37789435067464],[-105.49167627763543,40.37786004061828],[-105.49165544196192,40.37780458842577],[-105.49168582072028,40.37774686680411],[-105.49244537350874,40.37734549628779],[-105.4926777736319,40.37726169166814],[-105.49340067296434,40.37717719145541],[-105.49387023871822,40.37720122896681],[-105.49428749807048,40.37733947851386],[-105.49438507844818,40.377470409469375],[-105.49471399718674,40.37749572812297],[-105.49500842953756,40.37743231117754],[-105.49551184858687,40.37715958574295],[-105.49576101045878,40.377176749705306]]}},{"type":"Feature","properties":{"depth_ft":20,"elevation_ft":7455.0,"major":false},"geometry":{"type":"LineString","coordinates":[[-105.49637124545443,40.37623797103832],[-105.49660274317952,40.37643561966142],[-105.49679202805048,40.37650985052717],[-105.49690330645318,40.37666179701582],[-105.49682524903963,40.376683134570165],[-105.49677143665397,40.37680962654897],[-105.49665656059838,40.37687619818352],[-105.4966248516375,40.37694619622682],[-105.49657527526703,40.37691716580519],[-105.49647478682854,40.377003420246254],[-105.496408893103,40.37694207760995],[-105.49639394701212,40.37681076728787],[-105.49632096342253,40.37683364017899],[-105.49620755106304,40.37706094830195],[-105.49624087969566,40.37711848587508],[-105.49621972812551,40.37717457261277],[-105.49602764932948,40.37711087862167],[-105.49589381911018,40.37711087395949],[-105.49583911896148,40.37700921073469],[-105.49571077130003,40.37699881135853],[-105.49498490273679,40.37713898008681],[-105.49480608318878,40.377267048917915],[-105.49466343882797,40.377290735364845],[-105.49405104739287,40.37707598415251],[-105.49353784180892,40.37701646409907],[-105.49307622584698,40.37689216666876],[-105.4927175432931,40.376868676918484],[-105.49252526282574,40.37693090679598],[-105.49234520671976,40.37707558418406],[-105.49224981592795,40.37723783493781],[-105.4920909170849,40.37727537823183],[-105.49204604414066,40.37733027559823]]}},{"type":"Feature","properties":{"depth_ft":40,"elevation_ft":7435.0,"major":false},"geometry":{"type":"LineString","coordinates":[[-105.4893470495265,40.37616891287715],[-105.48924749359364,40.37585597021558],[-105.4892285668684,40.37561607166556],[-105.4891541096521,40.37551710070813],[-105.48904873939053,40.375475176970426],[-105.48908802439982,40.37542279018345],[-105.48933183392693,40.37533111127517],[-105.49012525295036,40.37542416291034],[-105.49014228192918,40.375463357486275],[-105.49007836241908,40.375471337637165],[-105.49010237542443,40.37551937939061],[-105.49037191035323,40.375576079422295],[-105.49045262027288,40.37563098385028],[-105.49049534755135,40.37574627561394],[-105.49102948298858,40.3760448420805],[-105.49097734427914,40.376055956817154],[-105.49112373982874,40.37615259236832],[-105.49109042686594,40.37616481633065],[-105.49124359347717,40.37636506603569],[-105.49120476474005,40.376385544493814],[-105.49121052382725,40.37655273101701],[-105.49154721273021,40.37664261139908],[-105.4915438116065,40.37669184233109],[-105.49140389841612,40.37690848074973],[-105.49133044982148,40.37697150721861],[-105.49122123815253,40.37696618997754],[-105.49121868771623,40.37703716409272],[-105.49110890752863,40.377118948914436],[-105.49083466804184,40.37716965012605],[-105.49082819216247,40.37726746173111],[-105.49045685786251,40.37740015194528],[-105.49013621674581,40.377411375377996],[-105.49004250366733,40.377464766506115],[-105.4900383429747,40.377522417007825],[-105.48987004200168,40.377398470279715],[-105.48988339689244,40.377329293835146],[-105.48983798234768,40.377214214190175],[-105.48986323314072,40.37714618885049],[-105.48982295009574,40.377027347846855],[-105.48956967655197,40.376982071202946],[-105.48959687725731,40.3769701497322],[-105.48956874923664,40.37693205101874],[-105.48966555072964,40.37683259226412],[-105.48963467113704,40.37658360483134],[-105.48950834686494,40.3764836910505],[-105.4894743113851,40.37631513386825],[-105.4893470495265,40.37616891287715]]}},{"type":"Feature","properties":{"depth_ft":20,"elevation_ft":7455.0,"major":false},"geometry":{"type":"LineString","coordinates":[[-105.49615952806667,40.37536779023486],[-105.49617031847912,40.375444468411274],[-105.49642391894324,40.37565145195045],[-105.49639639452622,40.3757822971807],[-105.49635863112988,40.37580086453016],[-105.49640965408011,40.375891888658266],[-105.49637287706491,40.37589534130685],[-105.4964995111257,40.37594013193586],[-105.49643282426632,40.375954688069335],[-105.49649585344979,40.37598816701847],[-105.49638561436676,40.376015623766406],[-105.49660455870793,40.37601837540734],[-105.49611741262888,40.3760226712805],[-105.49595856755305,40.37613090151341],[-105.49585798567912,40.37613364298639],[-105.49595856695329,40.376140965695214],[-105.49603603798842,40.376233545331985],[-105.4960798497406,40.37621541148152],[-105.49605897721993,40.37625443097928]]}},{"type":"Feature","properties":{"depth_ft":20,"elevation_ft":7455.0,"major":false},"geometry":{"type":"LineString","coordinates":[[-105.49203886517176,40.37733302012733],[-105.49165531974128,40.377391033077274],[-105.49131736775126,40.37765359282108],[-105.4908569837709,40.37781399889842],[-105.49073639221736,40.3779159243662],[-105.48973337911832,40.37805165000838],[-105.48938265248957,40.3780190645233],[-105.48925967118785,40.37792114743304],[-105.4891114531124,40.377690028554696],[-105.48874039099773,40.37678753386203],[-105.48854864745175,40.3765857784692],[-105.48817226678983,40.375859048230204],[-105.48803714490954,40.37575210186507],[-105.48789328600371,40.37572364154508],[-105.48783268875935,40.375543128339686],[-105.48784701125017,40.37547237795846],[-105.48776279991182,40.37541347899392],[-105.48764830596728,40.37514388091971],[-105.48812282735065,40.37472370509495],[-105.48834705913214,40.374609861614175],[-105.48856885180753,40.374556797030344],[-105.48861160474014,40.374573352431746],[-105.48857744864829,40.3746364449831],[-105.4886487561274,40.374652937436494],[-105.48884840410858,40.37456851401987],[-105.48880534191244,40.3745204719605],[-105.48886575753589,40.37451922144348],[-105.48890177499257,40.37457854189847],[-105.48928187646536,40.374506913455264],[-105.48937603969618,40.37440660718475],[-105.48959153779109,40.37440149872413],[-105.48971644508005,40.37433942983049],[-105.48985407765804,40.374381207200535],[-105.49003645474693,40.37436000041838],[-105.49009547942168,40.37428685978454],[-105.49049641880984,40.37426128032654],[-105.49071141220057,40.37420581188913],[-105.49112189422719,40.373996302738625],[-105.49182934078667,40.3738533073127],[-105.4926802882056,40.37393032659068],[-105.49303565792209,40.374024271881524],[-105.49326315596574,40.37401984897605],[-105.49340043431198,40.37409946616027],[-105.49342436732796,40.37419019469365],[-105.49379596649656,40.37424041362107],[-105.49392478849987,40.374217887473506],[-105.49423356235158,40.374298258222474],[-105.49446909015046,40.374288925990044],[-105.49500177418756,40.37439039986987],[-105.49535918894247,40.37450307686526]]}},{"type":"Feature","properties":{"depth_ft":10,"elevation_ft":7465.0,"major":false},"geometry":{"type":"LineString","coordinates":[[-105.48826307442054,40.37625939395759],[-105.48809102167192,40.37591700149906],[-105.48792639912075,40.37581073732745],[-105.48787176971655,40.37572853945017],[-105.48762697523159,40.375139539563605],[-105.48777361828895,40.3749101079302],[-105.48803579763495,40.37467818441694],[-105.4884912177822,40.37449681220962],[-105.48918947085872,40.374401522272926],[-105.48960656068789,40.374226529137324],[-105.48974335321479,40.374269389083686],[-105.490365483131,40.374134149170224],[-105.49145671726454,40.37377456275379],[-105.49221139028852,40.37380831089343],[-105.49299398058953,40.37390454202651]]}},{"type":"Feature","properties":{"depth_ft":30,"elevation_ft":7445.0,"major":false},"geometry":{"type":"LineString","coordinates":[[-105.49257746348735,40.37550761242002],[-105.49223290211103,40.37546915953029],[-105.49225085921309,40.37537308493074],[-105.49185964165177,40.37530168752757],[-105.49149712808753,40.375323621693],[-105.49150071214433,40.375364797299774],[-105.49143675953707,40.375375772685864],[-105.49150071042423,40.375378522414245],[-105.49143675815098,40.37538675007562],[-105.49150070801609,40.37539773757446],[-105.49139293923633,40.37542791857214],[-105.49145984849834,40.375447144984136],[-105.49142807794225,40.37546422068056],[-105.4914534897436,40.37549302368212],[-105.4920060301844,40.37558457466184],[-105.49204503210017,40.375627749311874],[-105.49198031908591,40.3757244303547],[-105.4918305273754,40.37574304966752],[-105.49177491951177,40.375631158141104],[-105.49149557623358,40.375622710192],[-105.49143368890374,40.37556792405931],[-105.49106308895142,40.37548880106346],[-105.49112923788584,40.375342809290686],[-105.49088338886575,40.37518906893361],[-105.4909415942822,40.37516496088188],[-105.49107646736223,40.37521981776519],[-105.49109337168353,40.37518085919102],[-105.4910038430046,40.37516161460286],[-105.49084849580042,40.37498493571305],[-105.49078471074662,40.37496060280324],[-105.49069708962475,40.37472155453609],[-105.49072391266174,40.3746389033845],[-105.49053394389595,40.37450436117078],[-105.49041808970009,40.37446068344669],[-105.49009178649436,40.37447320495693],[-105.48960483082337,40.37458024795363]]}},{"type":"Feature","properties":{"depth_ft":30,"elevation_ft":7445.0,"major":false},"geometry":{"type":"LineString","coordinates":[[-105.48960483082337,40.37458024795363],[-105.4887570879343,40.374721194423124],[-105.48840935130414,40.3748323579411],[-105.48816641329435,40.37483196955914],[-105.48766519913315,40.37517050619959],[-105.48776161202152,40.375359757292955],[-105.48789845629346,40.37545546920718],[-105.48789993337962,40.37564453100751],[-105.48810524843809,40.375679262200535],[-105.48844650326568,40.37601396792393],[-105.4885899406301,40.37644623220049],[-105.48887794574402,40.376432974564814],[-105.48885464296313,40.376401709873164],[-105.48891486760665,40.37634716192985],[-105.48900909105582,40.37608332272925],[-105.4891640059449,40.376113995465445],[-105.48934702696052,40.37631256904852],[-105.48935059783837,40.37642969033],[-105.48931297772896,40.37646601878779],[-105.48882803841809,40.37660538742493],[-105.488873972334,40.37665696007368],[-105.48885450756744,40.376716820941546],[-105.48890647145558,40.37678621788686],[-105.4891439651048,40.37751675931763],[-105.48934322906032,40.37764024703928],[-105.48977575891656,40.37755244529355],[-105.48985514988624,40.3775964527665],[-105.49003461977755,40.37760796175726],[-105.49026909849152,40.37755034342297],[-105.49034108778181,40.37747563225762],[-105.49070528446588,40.377409096148206],[-105.49117855981015,40.37718353519733],[-105.49131179251012,40.37707808706353],[-105.49157674162754,40.37704313640329],[-105.49175490635466,40.376786685980676],[-105.49193554562355,40.376733112215206],[-105.4919162667409,40.37659959094117],[-105.49201774748674,40.376470844901064],[-105.49222561654469,40.376403568153776],[-105.4925911244783,40.3764020322498],[-105.4926951499588,40.37644466865032],[-105.49291564798995,40.376285791649565],[-105.49282020149985,40.37616330806556],[-105.49266746624373,40.37607334408432],[-105.49296748784754,40.37603239536997],[-105.4923857210242,40.375898028135175],[-105.49278563724253,40.37583075742506],[-105.49289120636865,40.37574409759987],[-105.49266222327121,40.3756525546585],[-105.49258105001158,40.37553231785504]]}}]}
