{"type":"FeatureCollection","name":"Pinewood Reservoir 2012 bathymetric contours","metadata":{"water":"Pinewood Reservoir","survey_year":2012,"reference_elevation_ft":6580.0,"contour_interval_ft":10,"depth_reference":"Feet below the documented reference elevation","vertical_datum":"Reclamation project vertical datum","source":"U.S. Bureau of Reclamation","source_url":"https://www.usbr.gov/tsc/techreferences/reservoir/Pinewood%20Reservoir%20-%20Rattlesnake%20Dam%202012%20Bathymetric%20Survey.gdb.zip","disclaimer":"Historical survey contours are for planning only and do not represent current depth or navigation hazards."},"features":[{"type":"Feature","properties":{"depth_ft":60,"elevation_ft":6520.0,"major":false},"geometry":{"type":"LineString","coordinates":[[-105.28698355455575,40.366018298087205],[-105.28705950160689,40.3660375456945],[-105.28708135675052,40.36608214224056],[-105.28699227169399,40.36613239431381],[-105.28690523203501,40.36608508961979],[-105.28698355455575,40.366018298087205]]}},{"type":"Feature","properties":{"depth_ft":60,"elevation_ft":6520.0,"major":false},"geometry":{"type":"LineString","coordinates":[[-105.28720562425298,40.36690692228113],[-105.28723322629293,40.367194519024395],[-105.28728645473512,40.367287842537834],[-105.28734342484167,40.36720665419683],[-105.28734830809175,40.36707544180937],[-105.28726762284634,40.36691434625338],[-105.28720562425298,40.36690692228113]]}},{"type":"Feature","properties":{"depth_ft":60,"elevation_ft":6520.0,"major":false},"geometry":{"type":"LineString","coordinates":[[-105.28708677576691,40.36636289427509],[-105.28708862286864,40.3663130898533],[-105.28708677576691,40.36636289427509]]}},{"type":"Feature","properties":{"depth_ft":50,"elevation_ft":6530.0,"major":true},"geometry":{"type":"LineString","coordinates":[[-105.28688285918143,40.36444071119591],[-105.28689850790563,40.36462315974472],[-105.28698234521407,40.36477742045533],[-105.28703908418713,40.36502991949082],[-105.2870511934154,40.36522012648896],[-105.2872024022607,40.36528210082692],[-105.28738071708625,40.36580878604376],[-105.28734605292078,40.36629218835596],[-105.28745158517754,40.36658985894861],[-105.28747316463472,40.36683906634527],[-105.28756181645505,40.36703746489342],[-105.28757530617551,40.367259659170216],[-105.28762483848416,40.36731334745675],[-105.28757851570285,40.367352564867424],[-105.28695385837017,40.36742499962313],[-105.28684190171194,40.36737200142872],[-105.2869637059042,40.367251594160145],[-105.28694223191224,40.36684792098413],[-105.287059645646,40.36676911786372],[-105.28716501341242,40.36675807994349],[-105.2871889354878,40.36661758847228],[-105.28727711922888,40.366524883806974],[-105.28705853132956,40.36649624412244],[-105.2869067099534,40.36643203859989],[-105.2868859550938,40.36627333952686],[-105.28681005345952,40.36612756896069],[-105.28687090231325,40.36600304377184],[-105.2868488209939,40.365861122264114],[-105.2866546180773,40.36574906510836],[-105.28660069006881,40.36542331608417],[-105.28654666570901,40.36533038251177],[-105.28669543802668,40.365182409954464],[-105.28664782044528,40.36502829316511],[-105.28655952791401,40.36498118222324],[-105.28665789781743,40.364803663585306],[-105.28661754148172,40.36468323817132],[-105.28656903369506,40.36465990972267],[-105.28642485821156,40.36473738511917],[-105.28641503732833,40.364888544892025],[-105.28633263299751,40.36500447351735],[-105.28628101220475,40.36495419588291],[-105.28626148944356,40.364735399898706],[-105.28628116452421,40.36467529842759],[-105.28652054252089,40.36455125818326],[-105.28659824961913,40.36439671913348],[-105.28675263916183,40.36429188668475],[-105.28688285918143,40.36444071119591]]}},{"type":"Feature","properties":{"depth_ft":40,"elevation_ft":6540.0,"major":false},"geometry":{"type":"LineString","coordinates":[[-105.28604586734592,40.36507527325096],[-105.28609462355489,40.36517032366556],[-105.28630292405283,40.365335171369],[-105.28631147848762,40.365401110345225],[-105.28649161974624,40.36547302214784],[-105.28659356473247,40.365695288533836],[-105.2865687549251,40.36582612742031],[-105.28669321457443,40.36611257335241],[-105.28667829514669,40.366421955957975],[-105.286598042981,40.36679008616692],[-105.28668152894384,40.367222167756495],[-105.28676835440551,40.36745075262375],[-105.28689904936415,40.36753504883683],[-105.28804924234518,40.36740089446243],[-105.2880866631095,40.36730942476685],[-105.2880140619535,40.36719141761976],[-105.28775806455938,40.36710452114192],[-105.287744457241,40.36696600252002],[-105.28750844044198,40.366369189518004],[-105.28747365715931,40.366129876232655],[-105.28759890430769,40.3657770939366],[-105.28744427154244,40.36557151638214],[-105.28727352780342,40.36522492151878],[-105.28718263072395,40.364907457979804],[-105.28720861097167,40.364820756922526],[-105.2870773867632,40.36467218491725],[-105.28699488894719,40.364226697924245],[-105.28703027452018,40.36403409698303],[-105.28695770074101,40.36391619630613],[-105.28683190125598,40.36387531363904],[-105.28680020781567,40.36378573633315],[-105.28675014504279,40.363764738557066],[-105.28655595130837,40.363830567371],[-105.28642227432616,40.36396995423272],[-105.28620260144032,40.363974121666885],[-105.28612957236646,40.36387413712149],[-105.28592880373226,40.363858122178144],[-105.2859502949361,40.36379000153541],[-105.28591706611842,40.36363592627386],[-105.28577473541154,40.36352639138591],[-105.28563378026186,40.36354875576671],[-105.28551774104325,40.36345623473329],[-105.28535137139471,40.363420934771995],[-105.28516952225695,40.36350970717255],[-105.2849157160678,40.36345762569056],[-105.28474564056778,40.363282030155595],[-105.28456337981446,40.36325041994315],[-105.28475930907298,40.3635950078628],[-105.28499493925726,40.36360964763173],[-105.28558589994036,40.36381931099876],[-105.28580611654847,40.364060771657414],[-105.28594442581442,40.364137324395834],[-105.28605480471768,40.36430862647604],[-105.28618106333099,40.36437801760824],[-105.28619007912417,40.36445551489298],[-105.28607923855374,40.36469584248575],[-105.28602698864816,40.364992924226385],[-105.28604586734592,40.36507527325096]]}},{"type":"Feature","properties":{"depth_ft":30,"elevation_ft":6550.0,"major":false},"geometry":{"type":"LineString","coordinates":[[-105.28310624470448,40.361895323762816],[-105.28327566154042,40.36208709627168],[-105.283872033838,40.36243413318922],[-105.28392345507731,40.36253961042617],[-105.28399631602603,40.362587028779544],[-105.28411035903616,40.362582443710636],[-105.28418627990864,40.3624863412203],[-105.28422478557147,40.362524648907495],[-105.28484098562744,40.362625748581614],[-105.28500432042519,40.36258966275431],[-105.28519661182483,40.362623862990205],[-105.28565564980595,40.362846808593176],[-105.28604281547582,40.36294475562677],[-105.28620825147323,40.3630264942746],[-105.28672666218652,40.36297360483745],[-105.28707071196804,40.363236908064025],[-105.28707791004243,40.363759098953885],[-105.2871867218849,40.36411273673325],[-105.28715350864728,40.364434136904435],[-105.28722942006529,40.36463835012773],[-105.28744155504613,40.36476944825171],[-105.28735836328666,40.36488252575442],[-105.28738002751717,40.36522572660376],[-105.28776675849178,40.36576951117406],[-105.28762216410536,40.36603723863976],[-105.28762211190478,40.36627388803346],[-105.28785598389499,40.36681693814],[-105.28793090247463,40.36690715705058],[-105.287946296804,40.36706849207502],[-105.28820607527769,40.36709723685743],[-105.28825720194675,40.367244919134144],[-105.28830951897055,40.36727950593858],[-105.28828222095886,40.36731060071325],[-105.28833563122724,40.367391803768314],[-105.28822517224094,40.36752665813997],[-105.2874033481749,40.36761631113229],[-105.28732840690208,40.36758737692737],[-105.28708769968988,40.36760604228645],[-105.28680605079279,40.367670344626184],[-105.28668435017596,40.36765116758836],[-105.2863970890653,40.36716848597981],[-105.2863499285818,40.366765488534035],[-105.28621849209229,40.36645990601582],[-105.28622270522828,40.36634959269532],[-105.28628917978402,40.36624564074325],[-105.28628706288802,40.36604008784595],[-105.2862209538344,40.36576701406074],[-105.28622707491839,40.36563782941499],[-105.2859989035903,40.36528164611288],[-105.28596328850975,40.36481863908463],[-105.28602206810525,40.36453468579268],[-105.28596708265475,40.364365101656475],[-105.28573161319876,40.36417419999072],[-105.28551431682119,40.36390206376178],[-105.28505690065997,40.36372252522497],[-105.2847628793005,40.363681314767796],[-105.2844734701008,40.36347000715306],[-105.28438126516691,40.36334512649233],[-105.28434185365145,40.36313533605981],[-105.28409983862863,40.36289674090995],[-105.28410002648377,40.36277816785567],[-105.2839232064047,40.36270526780564],[-105.2838478309952,40.3625217509743],[-105.28364032444573,40.362458791761064],[-105.2831297654336,40.36204337921669],[-105.28311969754479,40.36197209204113],[-105.28292593521772,40.361868660722685],[-105.28302543149353,40.36183930090262],[-105.28310624470448,40.361895323762816]]}},{"type":"Feature","properties":{"depth_ft":30,"elevation_ft":6550.0,"major":false},"geometry":{"type":"LineString","coordinates":[[-105.28049546539579,40.3597938296385],[-105.27993708846684,40.35955306083487],[-105.2795749542799,40.35951379811735],[-105.27950944342464,40.35954613759218],[-105.27955709773947,40.35960018070005],[-105.28004104491355,40.359657212138146],[-105.28055817330674,40.35989164135744],[-105.28049546539579,40.3597938296385]]}},{"type":"Feature","properties":{"depth_ft":30,"elevation_ft":6550.0,"major":false},"geometry":{"type":"LineString","coordinates":[[-105.28072679494873,40.360088176779705],[-105.28064165421608,40.35995107169635],[-105.28068824076448,40.360006923425914],[-105.28078111204331,40.360024113301115],[-105.28078217592868,40.36010656738297],[-105.28072679494873,40.360088176779705]]}},{"type":"Feature","properties":{"depth_ft":30,"elevation_ft":6550.0,"major":false},"geometry":{"type":"LineString","coordinates":[[-105.28188998795542,40.36102978814133],[-105.28174127813561,40.360911653465266],[-105.28178031268912,40.360841941889056],[-105.2820013042587,40.361128118283936],[-105.28188998795542,40.36102978814133]]}},{"type":"Feature","properties":{"depth_ft":30,"elevation_ft":6550.0,"major":false},"geometry":{"type":"LineString","coordinates":[[-105.28230791182216,40.36132658407477],[-105.28225585225363,40.36132897196409],[-105.2823018804946,40.36127335789259],[-105.28230791182216,40.36132658407477]]}},{"type":"Feature","properties":{"depth_ft":30,"elevation_ft":6550.0,"major":false},"geometry":{"type":"LineString","coordinates":[[-105.28319567218888,40.361915013427584],[-105.28317453784591,40.3618818632187],[-105.28322523636754,40.36189324349622],[-105.28319567218888,40.361915013427584]]}},{"type":"Feature","properties":{"depth_ft":30,"elevation_ft":6550.0,"major":false},"geometry":{"type":"LineString","coordinates":[[-105.2839755259362,40.360930262715264],[-105.28401554196826,40.36095905302176],[-105.2839755259362,40.360930262715264]]}},{"type":"Feature","properties":{"depth_ft":20,"elevation_ft":6560.0,"major":false},"geometry":{"type":"LineString","coordinates":[[-105.28590267067626,40.36491081370726],[-105.28593918294321,40.36448727634618],[-105.28575760963166,40.36427968971264],[-105.28564168090242,40.3642311121368],[-105.28546086692003,40.36399166850347],[-105.28525597123915,40.363863396317996],[-105.28461833829083,40.36374153710638],[-105.28434929044204,40.36357434972601],[-105.28421410519928,40.36345193947979],[-105.28417285174027,40.36320620429941],[-105.28392381536881,40.36308327727596],[-105.28377331768536,40.36291517828138],[-105.28372794475072,40.36277009473911],[-105.28356750861819,40.36276117383774],[-105.28347995420323,40.36256224452161],[-105.28318031961608,40.362318737761896],[-105.28308300780542,40.362144518638246],[-105.28289730707547,40.36211624509584],[-105.28282727807122,40.36194479216009],[-105.28268973175445,40.36193282475009],[-105.28248865478237,40.36184648054262],[-105.28246466789021,40.36179321257707],[-105.28250313318165,40.36166486862286],[-105.28268541475443,40.36160419910898],[-105.28288665277945,40.361748221522255],[-105.28302017338493,40.361734078978174],[-105.28331331686323,40.36184000600035],[-105.28348479990966,40.3618261076926],[-105.28351089901398,40.36194822060447],[-105.28366792250759,40.36197263550366],[-105.28366933306953,40.3616890849887],[-105.28358949434497,40.361657087932265],[-105.28351347758723,40.36152392687966],[-105.28342601609118,40.36149335463726],[-105.2834250947215,40.36143752451278],[-105.28386964632399,40.36091949857359],[-105.2839572044772,40.36087852132339],[-105.28408159297035,40.36091470517199],[-105.28411440479488,40.3610223613781],[-105.28451810625458,40.36119110206641],[-105.2841694379365,40.36162828984378],[-105.28417916682973,40.361660660330394],[-105.28422118797339,40.36168883647974],[-105.28434434890357,40.3616480116664],[-105.28464521425197,40.36168186629716],[-105.2846309512043,40.361823784783994],[-105.28466125941165,40.36187752695058],[-105.28499815184911,40.362096531451535],[-105.2852103603901,40.36212579727971],[-105.28546270673318,40.362473781215385],[-105.28572823303769,40.36269564416344],[-105.28589377240131,40.36275103721494],[-105.2861883934529,40.362712986550164],[-105.28651415304216,40.36273205649759],[-105.28665861770114,40.36269601104028],[-105.28685417258582,40.36256163154209],[-105.28691979840839,40.36257195782257],[-105.28695542518672,40.3628027830235],[-105.28702591040103,40.36290303527995],[-105.28733614393055,40.3631640303864],[-105.28754105977451,40.363159768920184],[-105.28732427236974,40.36332933859404],[-105.28731319651413,40.363489057311966],[-105.28723231379907,40.36366892859787],[-105.28722793232564,40.36383310766089],[-105.28731548430554,40.36414873507564],[-105.2872785632019,40.364379566568296],[-105.28739727733418,40.364618380119225],[-105.287705129563,40.36474748911258],[-105.287664584767,40.364823209575455],[-105.28748209534952,40.364922955547556],[-105.28747124083658,40.36517439830502],[-105.28766885772716,40.36551180102008],[-105.28783905856766,40.365650774793956],[-105.28787824480348,40.36573811758343],[-105.28774788091518,40.36603523808768],[-105.28773387975367,40.36615620478253],[-105.28782880583852,40.36642274250846],[-105.28797901666702,40.3666653315785],[-105.28814968531287,40.366778552089784],[-105.2883441269426,40.36684188005867],[-105.28855948263913,40.366891502655946],[-105.28876826945898,40.36688074641707],[-105.28893757205005,40.36695188533468],[-105.28917074376217,40.36694177436549],[-105.28930864494636,40.366991336640325],[-105.29030051248682,40.366987067647905],[-105.29034071512184,40.367016553126895],[-105.28948148737055,40.367127456037764],[-105.28898104440941,40.36725251793471],[-105.2888416689761,40.36740788280535],[-105.28844694062472,40.36759041679217],[-105.28653392527339,40.367740001686315],[-105.28637194268615,40.367482902915974],[-105.28616597743095,40.367328854348244],[-105.28617238605457,40.367045421428976],[-105.2861016662369,40.36676620602781],[-105.28578503091502,40.36661265047607],[-105.28572955362064,40.366527598634704],[-105.28573878631217,40.36637869839321],[-105.28603394937149,40.36624924878526],[-105.2861368600436,40.366157298944266],[-105.28612712304896,40.36579018821282],[-105.28603244478126,40.36563298985495],[-105.28603424532305,40.36552913479282],[-105.28596062435349,40.365384191903686],[-105.28590267067626,40.36491081370726]]}},{"type":"Feature","properties":{"depth_ft":20,"elevation_ft":6560.0,"major":false},"geometry":{"type":"LineString","coordinates":[[-105.2808834748604,40.35998150744848],[-105.28122304809253,40.360312070578736],[-105.28151132025937,40.360440320776824],[-105.28184857253422,40.36070899538767],[-105.28222251257114,40.361107904850726],[-105.28250378048898,40.36126874934059],[-105.28252139072691,40.36134481762572],[-105.28237669953013,40.36161021057442],[-105.28210179943913,40.36160158963982],[-105.28190102577551,40.36172829711349],[-105.28180616021582,40.36174063607768],[-105.28174971557158,40.36166409651355],[-105.28173274474781,40.36148541907011],[-105.28133833533154,40.36095505698573],[-105.28132334111524,40.36083633095685],[-105.28122587301961,40.360648459464436],[-105.28111575006811,40.36055268222721],[-105.28100205303521,40.36058200908349],[-105.28077825552768,40.360519667765395],[-105.2807537151655,40.36025610022512],[-105.28037896481823,40.35993013149513],[-105.28014174635116,40.35978282486385],[-105.27986942986782,40.359688584016524],[-105.27949584905804,40.35967294376874],[-105.27938220267428,40.359606572776656],[-105.2793697406462,40.35952849732666],[-105.27943533847825,40.35944878543322],[-105.27956309939414,40.359418012566245],[-105.28015858477711,40.35951851427618],[-105.28052647177843,40.359702174463415],[-105.2808834748604,40.35998150744848]]}},{"type":"Feature","properties":{"depth_ft":20,"elevation_ft":6560.0,"major":false},"geometry":{"type":"LineString","coordinates":[[-105.28409080876257,40.36121956669195],[-105.28418104469522,40.361281736767026],[-105.28404644128676,40.36132830395452],[-105.28395348048173,40.36119128585208],[-105.28406286563072,40.36116389157526],[-105.28409080876257,40.36121956669195]]}},{"type":"Feature","properties":{"depth_ft":10,"elevation_ft":6570.0,"major":false},"geometry":{"type":"LineString","coordinates":[[-105.28595260819688,40.365572375119385],[-105.28597912243983,40.366089799489885],[-105.28557848502454,40.366278530610366],[-105.28548138556405,40.366400494277435],[-105.28546000736537,40.36649985330197],[-105.28548451404441,40.36657692717231],[-105.28563122826475,40.366730813399],[-105.28594377369802,40.366928680453825],[-105.28599036098244,40.36709205826406],[-105.2858723583189,40.367353480629426],[-105.28587857317746,40.367479795262206],[-105.28594264166672,40.36755524984919],[-105.2862440856299,40.36770025272336],[-105.28626199986266,40.367795300177136],[-105.2863198890762,40.36785045349202],[-105.2885877228439,40.36766596754392],[-105.28937487044338,40.36726542285966],[-105.28965037398238,40.36719876606853],[-105.2903229426101,40.36709478691415],[-105.29157716081986,40.36701882675521],[-105.29179029284603,40.36696644525419],[-105.29173590214826,40.36693143661525],[-105.29083943790208,40.36699471468263],[-105.29051684623813,40.366934492542526],[-105.28987640056127,40.366919211166255],[-105.28878577336427,40.36676720065874],[-105.28815116911082,40.366596018930146],[-105.28799463641427,40.36640160794965],[-105.28789859181474,40.3661442769725],[-105.28792505097486,40.3660515029914],[-105.28817868395912,40.36568068073556],[-105.28778649284212,40.36540902261303],[-105.28761431845678,40.36523613384924],[-105.28761342531297,40.365018262037985],[-105.2878250436449,40.36478028884825],[-105.28786331065464,40.36461363211077],[-105.28761511487541,40.36457944559319],[-105.28747713563315,40.364504897505086],[-105.28742428427103,40.36434408714681],[-105.28744777276974,40.364021023663085],[-105.28736523005475,40.36377111531421],[-105.28753863916123,40.363340934273886],[-105.28795984678132,40.363101018444546],[-105.28759684114586,40.36305055505112],[-105.28738691393781,40.36296494796008],[-105.28732307184868,40.36268109857065],[-105.28715068249674,40.36250013110187],[-105.28704699867932,40.36228703089898],[-105.28694585945324,40.36231729174956],[-105.28679742587781,40.36244432000036],[-105.28662272126884,40.36250595914964],[-105.28601164159979,40.362537194109024],[-105.28581497174908,40.36247308350892],[-105.28565026611042,40.362270707143],[-105.2857028024297,40.36174754840305],[-105.28540776560317,40.3611773097683],[-105.28527654416335,40.36118493805094],[-105.28518982334526,40.36129362430648],[-105.28496550401464,40.36137648990361],[-105.28466464800923,40.36135638742987],[-105.28459534764048,40.36128169322057],[-105.28463162078064,40.3611230571886],[-105.28447790732702,40.36096371863426],[-105.28445627263928,40.36092379068196],[-105.28448520399482,40.360896388676885],[-105.28424920365192,40.36078273481143],[-105.28408996842609,40.36079227022136],[-105.28388845180574,40.36084701344055],[-105.28373991195811,40.360954516140986],[-105.28356408564878,40.36118649324217],[-105.28353708331791,40.36128734823048],[-105.28337316080042,40.361413826261185],[-105.28336625988706,40.361498434058134],[-105.28346831761928,40.36158846892952],[-105.28346850828673,40.36163680286591],[-105.28332202787661,40.361673438587395],[-105.2831462242101,40.36165166648053],[-105.2829389624513,40.36154929965133],[-105.28261095341071,40.361051295233814],[-105.28241871594668,40.36101968992981],[-105.28226917968325,40.360906400528634],[-105.28231035022807,40.36082834239104],[-105.28238568463806,40.36084844031234],[-105.28245962206061,40.3608170048311],[-105.28227399808655,40.360699273469926],[-105.28212784123669,40.36052893338563],[-105.28203513163362,40.36058275028442],[-105.28212715509382,40.36071653412223],[-105.28209261647194,40.360768495266754],[-105.28172894155794,40.36030193242391],[-105.28149937133205,40.36020506959142],[-105.28137428843212,40.36005750849839],[-105.28104959713056,40.359866898004924],[-105.28087024450002,40.359707760143486],[-105.28052116708145,40.359591132581556],[-105.28022862170576,40.3594372054782],[-105.27992156347406,40.359365095153706],[-105.27949794437741,40.35932678535949],[-105.27924021966803,40.35946114583992],[-105.27924386958561,40.35962203395832],[-105.27937509186413,40.35971949225894],[-105.27956270218905,40.359770654943596],[-105.27991470609454,40.35976341289724],[-105.28007517041887,40.35985209009255],[-105.28008343112023,40.3599030565214],[-105.27998026725824,40.359999047938125],[-105.28000543466082,40.360101352052176],[-105.27994761276898,40.36023592668452],[-105.28007277914806,40.36031512645221],[-105.28017977479603,40.3605016336745],[-105.2812873902839,40.361380113265014],[-105.28141661657439,40.36154287179723],[-105.28150092522239,40.36175409254758],[-105.28172636639293,40.3619920279736],[-105.28203258700162,40.36218584210675],[-105.28230504314243,40.36223658702979],[-105.28252846627416,40.362357676415],[-105.28294462561823,40.36273064866133],[-105.28306817317002,40.362905876120166],[-105.28337305119452,40.363063963528646],[-105.28365237883774,40.36328393871786],[-105.28380797463217,40.363321761629756],[-105.28378552785749,40.36351543406719],[-105.28383314582985,40.363575803830386],[-105.28399804971541,40.363640167497586],[-105.28384372532345,40.36369892787639],[-105.28381239735765,40.363746769826086],[-105.28502889133486,40.36387662318167],[-105.28526639768783,40.36394271731708],[-105.28540905706407,40.36404104722682],[-105.28558446252632,40.36429079373782],[-105.28569172599903,40.36434005962272],[-105.28585273250343,40.36450708484548],[-105.28589479984298,40.36476347948491],[-105.28583866117891,40.364918163272584],[-105.28584310213942,40.36513449533186],[-105.28592074665659,40.36531272209964],[-105.28591009065217,40.3654516726039],[-105.28595260819688,40.365572375119385]]}},{"type":"Feature","properties":{"depth_ft":10,"elevation_ft":6570.0,"major":false},"geometry":{"type":"LineString","coordinates":[[-105.28461103604072,40.36089591377596],[-105.28457689393254,40.36089773439467],[-105.28461103604072,40.36089591377596]]}}]}
